2023-003A               
1 55133U 23003A   24130.83903408  .00018947  00000+0  77960-3 0  9990
2 55133  97.2259 205.9579 0005040   5.3198 354.8093 15.24170362 73839
2023-007N               
1 55260U 23007N   24130.75471496  .00204146  00000+0  14380-2 0  9997
2 55260  97.3046 213.1115 0002124 293.4981  66.6060 15.73491113 74042
2023-007P               
1 55261U 23007P   24130.85517277  .00066673  00000+0  10735-2 0  9998
2 55261  97.3126 209.5322 0005021  36.6882 323.4714 15.52727979 73810
EOS-7                   
1 55562U 23019A   24130.43945069  .00037350  00000+0  69001-3 0  9994
2 55562  37.1765 122.0865 0002984 262.4540  97.5882 15.48146122 70284
HORUS 1                 
1 55690U 23025A   24130.83695018  .00013843  00000+0  58328-3 0  9994
2 55690  97.4240 206.5462 0004805 167.2204 192.9155 15.23440717 67073
HORUS 2                 
1 55844U 23032A   24130.80432218  .00012572  00000+0  52932-3 0  9994
2 55844  97.4292 206.7004 0003537 181.4918 178.6309 15.23495935 64505
GLOBAL-19               
1 55982U 23041B   24130.67399637  .00031741  00000+0  80463-3 0  9998
2 55982  42.0124   5.5185 0004726 214.7597 145.2935 15.39071109 63556
DEWASAT-2               
1 56180U 23054C   24130.82888182  .00046589  00000+0  11571-2 0  9997
2 56180  97.3725  28.8575 0004776 337.9801  22.1239 15.40177307 60252
KILICSAT                
1 56181U 23054D   24130.73389393  .00035915  00000+0  10117-2 0  9994
2 56181  97.3669  27.8522 0004811 334.1946  25.9057 15.36348864 60207
SSS-2B                  
1 56184U 23054G   24130.67603019  .00037909  00000+0  10193-2 0  9993
2 56184  97.3738  28.4127 0005199 331.5238  28.5722 15.37783565 60211
BRO-9                   
1 56185U 23054H   24130.83916626  .00015391  00000+0  54217-3 0  9990
2 56185  97.3663  26.3613 0006212 324.6658  35.4170 15.29370331 60120
CIRBE                   
1 56188U 23054L   24130.62228568  .00068871  00000+0  13743-2 0  9990
2 56188  97.3655  29.7060 0002821 323.2837  36.8219 15.46606861 60312
ION SCV-010             
1 56192U 23054Q   24130.56191267  .00004508  00000+0  30541-3 0  9996
2 56192  97.4746  20.3543 0011913 213.1794 146.8687 15.06913563 59385
GHOST-1                 
1 56195U 23054T   24130.68569566  .00015706  00000+0  54567-3 0  9999
2 56195  97.3683  26.5320 0007123 307.7316  52.3279 15.29812502 60113
GHOST-2                 
1 56197U 23054V   24130.59870650  .00018026  00000+0  59392-3 0  9999
2 56197  97.3677  26.9219 0007352 307.2474  52.8096 15.31500973 60136
TOMORROW-R1             
1 56199U 23054X   24130.29222535  .00023093  00000+0  69205-3 0  9995
2 56199  97.3701  27.4393 0006678 308.7229  51.3417 15.34482144 60132
FACSAT-2                
1 56205U 23054AD  24130.83246904  .00017791  00000+0  54587-3 0  9994
2 56205  97.3724  28.3510 0009675 290.3576  69.6627 15.33765264 60239
CONNECTA T2.1           
1 56210U 23054AJ  24130.83108112  .00025016  00000+0  78986-3 0  9996
2 56210  97.3646  27.5077 0008746 288.5353  71.4938 15.32789314 60201
INSPIRE-SAT 7           
1 56211U 23054AK  24130.72029443  .00070663  00000+0  13333-2 0  9996
2 56211  97.3705  30.9482 0004715 273.3808  86.6903 15.48215046 60398
ROSEYCUBESAT-1          
1 56212U 23054AL  24130.81514702  .00092849  00000+0  15719-2 0  9994
2 56212  97.3705  31.6097 0004255 261.5567  98.5203 15.51220317 60441
LS3C                    
1 56214U 23054AN  24130.44269512  .00048845  00000+0  10268-2 0  9992
2 56214  97.3661  30.0100 0006033 276.3880  83.6681 15.45155903 60323
IRIS-C                  
1 56221U 23054AV  24130.22074564  .00051997  00000+0  11664-2 0  9990
2 56221  97.3667  28.6565 0004484 287.8041  72.2717 15.43223583 60208
DISCO-1                 
1 56222U 23054AW  24130.50733847  .00033395  00000+0  92678-3 0  9995
2 56222  97.3652  27.7503 0007051 302.7025  57.3539 15.36816773 60170
VIREO                   
1 56223U 23054AX  24130.79693666  .00117666  00000+0  18725-2 0  9995
2 56223  97.3623  30.9214 0000429 236.5684 123.5527 15.52869122 60426
REVELA                  
1 56224U 23054AY  24130.44619025  .00035326  00000+0  91886-3 0  9997
2 56224  97.3671  28.5068 0003058 294.6284  65.4642 15.38830800 60216
TELEOS-2                
1 56310U 23057C   24130.33366135  .00012345  00000+0  99977-3 0  9990
2 56310   9.9901  42.3623 0000910 266.3843  93.6267 14.96389940 57443
SNIPE 4                 
1 56744U 23072B   24130.79259975  .00012788  00000+0  72984-3 0  9991
2 56744  97.5511 317.8448 0012638 156.8925 203.2877 15.12812758 52867
SNIPE 2                 
1 56745U 23072C   24130.84616732  .00014904  00000+0  85066-3 0  9993
2 56745  97.5654 318.2452 0009724 172.3584 187.7796 15.12801294 52883
2023-072G               
1 56749U 23072G   24130.83800651  .00014436  00000+0  78653-3 0  9995
2 56749  97.5309 317.5411 0009093 179.3298 180.7947 15.14476105 52904
OTTER PUP               
1 56933U 23084B   24130.28761376  .00015105  00000+0  65939-3 0  9999
2 56933  97.5337 249.2492 0008397 126.4436 233.7575 15.22199312 50245
GEISAT PRECURSOR        
1 56934U 23084C   24130.85812101  .00013257  00000+0  64413-3 0  9998
2 56934  97.5388 249.0203 0009111 159.2221 200.9385 15.18532815 50262
EIVE                    
1 56937U 23084F   24130.77865726  .00028241  00000+0  11638-2 0  9992
2 56937  97.5336 249.8800 0007894 156.5757 203.5841 15.24024240 50327
LAYAN-23                
1 56939U 23084H   24130.86850473  .00031395  00000+0  12437-2 0  9999
2 56939  97.5333 250.3851 0007785 145.9916 214.1822 15.25327728 50366
AFRL-XVI                
1 56942U 23084L   24130.58206917  .00028304  00000+0  11319-2 0  9994
2 56942  97.5373 250.1598 0009096 152.5796 207.5923 15.25023717 50311
BLACKJACK ACES-3        
1 56950U 23084U   24130.82348625  .00015672  00000+0  69024-3 0  9994
2 56950  97.5390 249.8100 0011546 139.4438 220.7660 15.21859934 50312
QPS-SAR-6 (AMATERU-III) 
1 56951U 23084V   24130.85624489  .00062232  00000+0  20713-2 0  9998
2 56951  97.5341 251.5167 0007902 140.7217 219.4599 15.30884652 50437
BLACKJACK ACES-4        
1 56952U 23084W   24130.58332146  .00017846  00000+0  78750-3 0  9991
2 56952  97.5375 249.6333 0011995 140.6350 219.5759 15.21761231 50281
BLACKJACK ACES-2        
1 56955U 23084Z   24130.29069431  .00017735  00000+0  77610-3 0  9997
2 56955  97.5376 249.2612 0011933 145.4597 214.7416 15.22046915 50237
BLACKJACK ACES-1        
1 56956U 23084AA  24130.59266934  .00011595  00000+0  51865-3 0  9990
2 56956  97.5356 249.6784 0012554 144.4320 347.6889 15.21391504 50284
ION SCV-011             
1 56957U 23084AB  24130.33233973  .00001268  00000+0  19227-3 0  9992
2 56957  98.0532 249.8139 0072443  69.3972 291.4988 14.74162819 49022
GHOST-3                 
1 56958U 23084AC  24130.84118449  .00012837  00000+0  61069-3 0  9994
2 56958  97.5389 249.4864 0012806 144.7053 215.5032 15.19240119 50291
TOMORROW-R2             
1 56962U 23084AG  24130.59756574  .00016091  00000+0  72496-3 0  9990
2 56962  97.5375 249.6152 0012961 142.6084 217.6056 15.21061143 50285
AFR-1                   
1 56964U 23084AJ  24130.84587004  .00007042  00000+0  36009-3 0  9996
2 56964  97.5409 249.0800 0014513 144.1482 216.0728 15.16875635 50263
DROID.001               
1 56965U 23084AK  24130.28425653  .00016187  00000+0  71948-3 0  9997
2 56965  97.5356 249.3471 0012657 140.9125 219.3027 15.21528163 50240
MUSAT1                  
1 56967U 23084AM  24130.57587092  .00044115  00000+0  14505-2 0  9994
2 56967  97.5312 251.4974 0009820 136.8238 223.3774 15.31356108 50415
AII-DELTA               
1 56987U 23084BH  24130.82356496  .00034371  00000+0  12154-2 0  9997
2 56987  97.5286 251.3311 0011919 127.1783 233.0546 15.29028520 50439
SPEI SATELLES           
1 56991U 23084BT  24130.59765877  .00029496  00000+0  11460-2 0  9994
2 56991  97.5324 250.5047 0010313 130.4559 229.7580 15.25968453 50354
URESAT-1                
1 56992U 23084BU  24130.59025344  .00034151  00000+0  13472-2 0  9992
2 56992  97.5282 249.6137 0014166 161.0096 199.1673 15.25385018 50299
MRC-100                 
1 56993U 23084BV  24130.28090237  .00036587  00000+0  13754-2 0  9990
2 56993  97.5282 249.5883 0013514 163.3966 196.7718 15.26980715 50271
METEOR-M2 3             
1 57166U 23091A   24130.81847037  .00000086  00000+0  56974-4 0  9996
2 57166  98.7155 185.8303 0003073 229.8916 130.1994 14.23888721 45167
STRATOSAT-TK 1 (RS52S)  
1 57167U 23091B   24130.83000730  .00019215  00000+0  11528-2 0  9998
2 57167  97.6142 184.0360 0014597 246.4558 113.5139 15.10893585 47761
UMKA 1 (RS40S)          
1 57172U 23091G   24130.82849874  .00009124  00000+0  61248-3 0  9996
2 57172  97.6144 183.2700 0015767 250.0370 109.9160 15.06943432 47711
2023-091H               
1 57173U 23091H   24130.83783480  .00011353  00000+0  75010-3 0  9997
2 57173  97.6137 183.2576 0013937 259.5947 100.3710 15.07489321 47715
2023-091J               
1 57174U 23091J   24130.83404692  .00005668  00000+0  40075-3 0  9998
2 57174  97.6148 182.8095 0014566 261.7043  98.2532 15.05190707 47688
CUBEBEL 2 (EU11S)       
1 57175U 23091K   24130.85991022  .00010499  00000+0  69552-3 0  9998
2 57175  97.6145 183.2174 0013665 261.9215  98.0463 15.07416669 47716
SITRO-AIS 5 (KATYS)     
1 57176U 23091L   24130.87484542  .00011148  00000+0  73267-3 0  9995
2 57176  97.6158 183.4001 0016419 249.4531 110.4935 15.07658604 47725
ZORKIY-2M 1             
1 57177U 23091M   24130.82876296  .00008948  00000+0  59717-3 0  9990
2 57177  97.6160 183.3419 0016642 245.6367 114.3123 15.07150600 47718
CUBESX-HSE 3 (RS42S)    
1 57178U 23091N   24130.81611609  .00011349  00000+0  73789-3 0  9999
2 57178  97.6184 183.5914 0016255 243.3186 116.6378 15.08054150 47723
MONITOR-3 (RS58S)       
1 57180U 23091Q   24130.85756236  .00010142  00000+0  66735-3 0  9995
2 57180  97.6173 183.5113 0016446 243.5347 116.4194 15.07641993 47728
